FLOCK 4G-14             
1 62667U 25009BL  26068.75869712  .00011310  00000+0  42676-3 0  9993
2 62667  97.4064 151.1836 0003006 318.3639  41.7371 15.27197201 63711
STARLINK-35782          
1 67182U 25303V   26068.06437699  .00024154  00000+0  88480-3 0  9999
2 67182  43.0030 313.8882 0001793 254.3565 105.7089 15.27563799 12646
